{
    "links": {
        "self": "http://www.neowsapp.com/rest/v1/neo/3645500?api_key=iIulBulltgU6a56xZRHN4H3l9WmuAYTsLGpBGhQ2"
    },
    "id": "3645500",
    "neo_reference_id": "3645500",
    "name": "(2013 PF21)",
    "designation": "2013 PF21",
    "nasa_jpl_url": "http://ssd.jpl.nasa.gov/sbdb.cgi?sstr=3645500",
    "absolute_magnitude_h": 22.7,
    "estimated_diameter": {
        "kilometers": {
            "estimated_diameter_min": 0.0766575574,
            "estimated_diameter_max": 0.1714115092
        },
        "meters": {
            "estimated_diameter_min": 76.6575573531,
            "estimated_diameter_max": 171.4115092306
        },
        "miles": {
            "estimated_diameter_min": 0.0476327831,
            "estimated_diameter_max": 0.1065101409
        },
        "feet": {
            "estimated_diameter_min": 251.5011804664,
            "estimated_diameter_max": 562.3737359442
        }
    },
    "is_potentially_hazardous_asteroid": false,
    "close_approach_data": [
        {
            "close_approach_date": "2013-07-20",
            "close_approach_date_full": "2013-Jul-20 13:58",
            "epoch_date_close_approach": 1374328680000,
            "relative_velocity": {
                "kilometers_per_second": "11.2791442206",
                "kilometers_per_hour": "40604.9191941553",
                "miles_per_hour": "25230.3177070572"
            },
            "miss_distance": {
                "astronomical": "0.0969552044",
                "lunar": "37.7155745116",
                "kilometers": "14504292.063654628",
                "miles": "9012549.1708967464"
            },
            "orbiting_body": "Earth"
        },
        {
            "close_approach_date": "2118-04-12",
            "close_approach_date_full": "2118-Apr-12 06:00",
            "epoch_date_close_approach": 4679186400000,
            "relative_velocity": {
                "kilometers_per_second": "16.9478786561",
                "kilometers_per_hour": "61012.3631619172",
                "miles_per_hour": "37910.7097658035"
            },
            "miss_distance": {
                "astronomical": "0.2548478341",
                "lunar": "99.1358074649",
                "kilometers": "38124693.155473367",
                "miles": "23689585.8261197846"
            },
            "orbiting_body": "Earth"
        }
    ],
    "orbital_data": {
        "orbit_id": "8",
        "orbit_determination_date": "2017-04-06 08:45:10",
        "first_observation_date": "2013-08-09",
        "last_observation_date": "2013-08-30",
        "data_arc_in_days": 21,
        "observations_used": 26,
        "orbit_uncertainty": "8",
        "minimum_orbit_intersection": ".0864415",
        "jupiter_tisserand_invariant": "3.408",
        "epoch_osculation": "2456518.5",
        "eccentricity": ".5743769247887432",
        "semi_major_axis": "2.20631549051159",
        "inclination": "10.08359001114303",
        "ascending_node_longitude": "147.8197676263667",
        "orbital_period": "1197.015704141969",
        "perihelion_distance": ".9390587839577752",
        "perihelion_argument": "109.1792639044845",
        "aphelion_distance": "3.473572197065404",
        "perihelion_time": "2456460.373136978624",
        "mean_anomaly": "17.48153396424742",
        "mean_motion": ".300747934011485",
        "equinox": "J2000",
        "orbit_class": {
            "orbit_class_type": "APO",
            "orbit_class_description": "Near-Earth asteroid orbits which cross the Earth’s orbit similar to that of 1862 Apollo",
            "orbit_class_range": "a (semi-major axis) > 1.0 AU; q (perihelion) < 1.017 AU"
        }
    },
    "is_sentry_object": false
}